BEIDOU 3 (C01)          
1 36287U 10001A   21057.69002659 -.00000286  00000-0  00000-0 0  9997
2 36287   1.7113  41.0450 0002781 100.3451  44.1160  1.00268231 40741
BEIDOU 5 (C06)          
1 36828U 10036A   21057.61132777 -.00000140  00000-0  00000-0 0  9992
2 36828  54.1765 180.6234 0107406 234.2187  78.3846  1.00296150 38793
BEIDOU 6 (C04)          
1 37210U 10057A   21057.83748728 -.00000117  00000-0  00000-0 0  9998
2 37210   0.9478  53.7755 0004286 196.0343   8.6201  1.00271529 37869
BEIDOU 7 (C07)          
1 37256U 10068A   21057.80884528 -.00000168  00000-0  00000-0 0  9992
2 37256  51.0500 295.3202 0082018 216.4381  54.6534  1.00291618 37378
BEIDOU 8 (C08)          
1 37384U 11013A   21057.39865868 -.00000146  00000-0  00000+0 0  9990
2 37384  59.6250  59.0210 0054748 207.3583 152.8997  1.00285118 36250
BEIDOU 9 (C09)          
1 37763U 11038A   21057.81038979 -.00000105  00000-0  00000-0 0  9996
2 37763  54.4644 183.0485 0078213 224.0031 135.6911  1.00287873 35232
BEIDOU 10 (C10)         
1 37948U 11073A   21057.74153147 -.00000110  00000-0  00000-0 0  9993
2 37948  51.1522 294.9304 0069347 215.1623   9.6854  1.00278348 33987
BEIDOU 11 (C05)         
1 38091U 12008A   21057.92410381  .00000052  00000-0  00000-0 0  9992
2 38091   1.3194  64.2298 0008193 293.3430 190.8000  1.00268893 33064
BEIDOU 12 (C11)         
1 38250U 12018A   21057.73904525 -.00000072  00000-0  00000-0 0  9990
2 38250  56.7567   9.2673 0023527 252.0410 332.8861  1.86234347 60225
BEIDOU 13 (C12)         
1 38251U 12018B   21057.67834400 -.00000073  00000-0  00000-0 0  9999
2 38251  56.6793   8.6245 0014636 257.7264 330.9413  1.86234176 60226
BEIDOU 15 (C14)         
1 38775U 12050B   21057.64733384  .00000023  00000-0  00000+0 0  9995
2 38775  55.1581 127.7183 0014071 317.0483  88.1963  1.86232291 57602
BEIDOU 16 (C02)         
1 38953U 12059A   21057.84525941 -.00000181  00000-0  00000-0 0  9999
2 38953   1.7041  84.8435 0009474 266.1064 194.2965  1.00273457 30631
BEIDOU 17 (C31)         
1 40549U 15019A   21057.87676086 -.00000150  00000-0  00000-0 0  9998
2 40549  52.6712 318.2720 0036400 188.4878  60.7925  1.00290459 21661
BEIDOU 18 (C57)         
1 40748U 15037A   21057.71226896 -.00000074  00000-0  00000-0 0  9997
2 40748  55.9448   7.7768 0005228 341.8552 179.5859  1.86233451 38053
BEIDOU 19 (C58)         
1 40749U 15037B   21057.60194208 -.00000074  00000-0  00000-0 0  9997
2 40749  55.9478   7.7683 0007235 313.3476 270.7071  1.86232303 38046
BEIDOU 20 (C18)         
1 40938U 15053A   21056.78146203 -.00000069  00000-0  00000-0 0  9999
2 40938  52.2340 281.3376 0046079 190.1536  60.9104  1.00261855 19933
BEIDOU IGSO-6 (C13)     
1 41434U 16021A   21057.32833530 -.00000109  00000-0  00000-0 0  9999
2 41434  57.3987  57.8110 0040866 216.0661  95.4288  1.00291797 18051
BEIDOU-2 G7 (C03)       
1 41586U 16037A   21056.89445281 -.00000358  00000-0  00000+0 0  9992
2 41586   1.4666  63.8233 0008772   7.4341 157.1416  1.00277112 17359
BEIDOU-3 M1 (C19)       
1 43001U 17069A   21057.79650990  .00000024  00000-0  00000-0 0  9997
2 43001  55.3133 127.6522 0010021 285.1115  16.4693  1.86231687 22535
BEIDOU-3 M2 (C20)       
1 43002U 17069B   21057.73129228  .00000024  00000-0  00000-0 0  9997
2 43002  55.3115 127.6911 0008426 306.0310 355.4307  1.86231489 22521
BEIDOU-3 M3 (C27)       
1 43107U 18003A   21057.94269370 -.00000074  00000-0  00000-0 0  9994
2 43107  55.3857   8.9003 0004602  26.0353 223.0356  1.86232545 21292
BEIDOU-3 M4 (C28)       
1 43108U 18003B   21057.71984998 -.00000074  00000-0  00000-0 0  9990
2 43108  55.3800   8.8977 0003960 263.4078 241.4413  1.86232558 21299
BEIDOU-3 M5 (C21)       
1 43207U 18018A   21056.34040877  .00000011  00000-0  00000-0 0  9993
2 43207  55.2720 127.8317 0005781 326.6905  33.3376  1.86231528 20654
BEIDOU-3 M6 (C22)       
1 43208U 18018B   21056.94405696  .00000017  00000-0  00000-0 0  9990
2 43208  55.2717 127.8153 0008172 295.2594  64.7187  1.86231725 20669
BEIDOU-3 M7 (C29)       
1 43245U 18029A   21057.48261828 -.00000075  00000-0  00000-0 0  9995
2 43245  55.3211   6.7117 0001659 312.5613 258.1905  1.86232639 19821
BEIDOU-3 M8 (C30)       
1 43246U 18029B   21057.90798012 -.00000075  00000-0  10000-3 0  9997
2 43246  55.3187   6.7294 0005400 338.0292 204.0115  1.86232992 19829
BEIDOU IGSO-7 (C16)     
1 43539U 18057A   21057.67926294 -.00000157  00000-0  00000-0 0  9999
2 43539  55.0563 179.9486 0032199 213.0544 119.2849  1.00247122  9739
BEIDOU-3 M9 (C23)       
1 43581U 18062A   21057.80648735  .00000064  00000-0  00000-0 0  9994
2 43581  54.4493 248.3955 0002193 318.9729   4.8379  1.86231856 17562
BEIDOU-3 M10 (C24)      
1 43582U 18062B   21057.68028404  .00000065  00000-0  00000-0 0  9997
2 43582  54.4467 248.3877 0006459  16.4623 313.9987  1.86232213 17566
BEIDOU-3 M11 (C25)      
1 43602U 18067A   21057.37823688  .00000067  00000-0  00000-0 0  9990
2 43602  54.5237 246.9721 0007441   6.5374 163.7967  1.86231588 17059
BEIDOU-3 M12 (C26)      
1 43603U 18067B   21057.71789975  .00000065  00000-0  00000-0 0  9997
2 43603  54.5164 246.9297 0004569   1.8564 306.6899  1.86231500 17072
BEIDOU-3 M13 (C32)      
1 43622U 18072A   21057.66113138  .00000023  00000-0  00000-0 0  9994
2 43622  55.2357 127.3596 0006714 279.3453  21.4250  1.86231513 16584
BEIDOU-3 M14 (C33)      
1 43623U 18072B   21057.65087203  .00000023  00000-0  00000-0 0  9997
2 43623  55.2361 127.3516 0004912 303.4200  80.7078  1.86231523 16597
BEIDOU-3 M15 (C34)      
1 43647U 18078A   21057.50379999 -.00000076  00000-0  10000-3 0  9992
2 43647  55.2150   6.9121 0007723 345.7608 194.9732  1.86232980 16095
BEIDOU-3 M16 (C35)      
1 43648U 18078B   21057.74048042 -.00000075  00000-0  10000-3 0  9990
2 43648  55.2109   6.9108 0005493 350.7693 257.2958  1.86232409 16119
BEIDOU-3 G1 (C59)       
1 43683U 18085A   21057.68993935 -.00000285  00000-0  00000-0 0  9999
2 43683   1.2455 239.5277 0002966  41.2578 264.3904  1.00270993  8645
BEIDOU-3 M17 (C36)      
1 43706U 18093A   21057.55288330  .00000066  00000-0  00000-0 0  9992
2 43706  54.5285 248.2543 0007514 279.3248  99.4117  1.86231852 15464
BEIDOU-3 M18 (C37)      
1 43707U 18093B   21057.45291986  .00000067  00000-0  00000-0 0  9994
2 43707  54.5296 248.2462 0007146 311.0655  91.4008  1.86232082 15461
BEIDOU-3 IGSO-1 (C38)   
1 44204U 19023A   21057.42360141 -.00000170  00000-0  00000-0 0  9994
2 44204  55.8627  58.1207 0016728 205.3344 159.8442  1.00273091  6942
BEIDOU-2 G8             
1 44231U 19027A   21056.90125721 -.00000250  00000-0  00000+0 0  9991
2 44231   0.4340 315.6120 0006822 268.3963  40.9534  1.00273799  6650
BEIDOU-3 IGSO-2 (C39)   
1 44337U 19035A   21057.67752683 -.00000152  00000-0  00000-0 0  9997
2 44337  55.0870 175.9943 0017238 187.3404 144.4505  1.00264976  6277
BEIDOU-3 M23 (C45)      
1 44542U 19061A   21057.48787766  .00000067  00000-0  10000-3 0  9991
2 44542  54.7539 248.3038 0008179 344.6631  34.6686  1.86231498  9727
BEIDOU-3 M24 (C46)      
1 44543U 19061B   21057.61867503  .00000066  00000-0  10000-3 0  9994
2 44543  54.7516 248.2706 0005470 344.0110  33.7104  1.86231763  9732
BEIDOU-3 IGSO-3         
1 44709U 19073A   21057.74609050 -.00000122  00000-0  00000-0 0  9996
2 44709  58.0102 301.2954 0018772 191.7921  38.5642  1.00259107  5032
BEIDOU-3 M21            
1 44793U 19078A   21057.03452463 -.00000076  00000-0  10000-3 0  9992
2 44793  55.0625   7.0052 0007284 350.4059 190.2882  1.86232398  8575
BEIDOU-3 M22            
1 44794U 19078B   21057.07682314 -.00000076  00000-0  10000-3 0  9997
2 44794  55.0382   7.0074 0005454 343.1803 136.6367  1.86232914  8579
BEIDOU-3 M19            
1 44864U 19090A   21057.79197722  .00000024  00000-0  00000-0 0  9990
2 44864  55.1719 127.5907 0016281 263.0637 170.8404  1.86231775  8172
BEIDOU-3 M20            
1 44865U 19090B   21057.70126787  .00000023  00000-0  00000-0 0  9994
2 44865  55.1724 127.6238 0014943 277.6205 185.3924  1.86231760  8152
BEIDOU-3 G2             
1 45344U 20017A   21057.84856956 -.00000144  00000-0  00000+0 0  9995
2 45344   2.5782 333.4495 0001777  39.5899 169.3432  1.00271506  3858
BEIDOU-3 G3             
1 45807U 20040A   21057.82762962 -.00000360  00000-0  00000-0 0  9997
2 45807   2.5393 298.4136 0009311  13.5736 253.3166  1.00276109  2666
